[
    {
        "Altitude(m)": 607911.0096119908,
        "Argument of Periapsis(deg)": 0.0,
        "Eccentricity": 0.0,
        "Inclination(deg)": 60.0,
        "Latitude(deg)": -14.292947464743659,
        "Longitude(deg)": -1.5573214474224955,
        "Mean Anomaly(deg)": -163.6364,
        "RAAN(deg)": 270.0,
        "Satellite Name": "Test1 1200",
        "Satellite Number": 1200,
        "Semi-Major Axis(m)": 6980739.136638005,
        "Time(s)": 0
    },
    {
        "Altitude(m)": 608060.2431118471,
        "Argument of Periapsis(deg)": 0.00010418945913296404,
        "Eccentricity": 0.0,
        "Inclination(deg)": 60.0,
        "Latitude(deg)": -14.826608245799783,
        "Longitude(deg)": -1.268710792390928,
        "Mean Anomaly(deg)": -163.01629385453816,
        "RAAN(deg)": 269.99957995086027,
        "Satellite Name": "Test1 1200",
        "Satellite Number": 1200,
        "Semi-Major Axis(m)": 6980739.136638005,
        "Time(s)": 10
    }
]